STARLINK-2103           
1 47383U 21005AL  26068.08255076  .00001146  00000+0  49613-4 0  9996
2 47383  53.1613  17.1416 0001288  95.4629 264.6519 15.31044749283622
HAWK-2A                 
1 47505U 21006CW  26068.67946547  .00008113  00000+0  25431-3 0  9990
2 47505  97.2459 115.6184 0006450 187.1463 172.9689 15.33304498284242
